[{"OBJECT_NAME":"STARLINK-32710","OBJECT_ID":"2025-008T","EPOCH":"2026-03-09T00:08:03.895296","MEAN_MOTION":15.27583206,"ECCENTRICITY":0.00033494,"INCLINATION":43.0054,"RA_OF_ASC_NODE":281.4422,"ARG_OF_PERICENTER":264.1752,"MEAN_ANOMALY":95.8718,"EPHEMERIS_TYPE":0,"CLASSIFICATION_TYPE":"U","NORAD_CAT_ID":62604,"ELEMENT_SET_NO":999,"REV_AT_EPOCH":6546,"BSTAR":0.0012655591,"MEAN_MOTION_DOT":0.00034734,"MEAN_MOTION_DDOT":0},{"OBJECT_NAME":"COSMOS 1862","OBJECT_ID":"1987-055A","EPOCH":"2026-03-09T22:37:02.390592","MEAN_MOTION":15.30492139,"ECCENTRICITY":0.00097484,"INCLINATION":82.4856,"RA_OF_ASC_NODE":47.1862,"ARG_OF_PERICENTER":26.6325,"MEAN_ANOMALY":333.5414,"EPHEMERIS_TYPE":0,"CLASSIFICATION_TYPE":"U","NORAD_CAT_ID":18152,"ELEMENT_SET_NO":999,"REV_AT_EPOCH":8987,"BSTAR":0.00034125048,"MEAN_MOTION_DOT":0.00010107,"MEAN_MOTION_DDOT":0}]
